#dP2022  9 27  0  0  0.00000000      96 __u+U ITR00 FIT  IAC
## 2229 172800.00000000   900.00000000 59849 0.0000000000000
+  117   C06C07C08C09C10C11C12C13C14C16C19C20C21C22C23C24C25
+        C26C27C28C29C30C32C33C34C35C36C37C38C39C40C41C42C43
+        C44C45C46E01E02E03E04E05E07E08E09E10E11E12E13E14E15
+        E18E19E21E24E25E26E27E30E31E33E34E36G01G02G03G04G05
+        G06G07G08G09G10G11G12G13G14G15G16G17G18G19G20G21G22
+        G23G24G25G26G27G28G29G30G31G32J02J03R01R02R03R04R05
+        R07R08R09R11R12R13R14R15R17R18R19R20R21R24R25  0  0
++         6  8  7  7  8  7  5  7  7  8  8  8  6  7  7  7  5
++         7  7  7  8  7  7  8  7  7  7  6  9  8  7  6  7  7
++         6  8  7  6  7  7  5  7  6  6  7  7  7  6  7  7  6
++         6  6  6  7  7  7  6  7  6  7  5  7  5  7  5  6  7
++         6  7  7  6  6  5  6  6  5  6  7  7  7  6  6  7  6
++         6  6  6  6  6  6  6  5  5  6  7  8  6  7  6  7  6
++         6  7  8  5  6  6  7  8  7  6  7  7  6  8  5  0  0
%c M  cc GPS ccc cccc cccc cccc cccc ccccc ccccc ccccc ccccc
%c cc cc ccc ccc cccc cccc cccc cccc ccccc ccccc ccccc ccccc
%f  0.0000000  0.000000000  0.00000000000  0.000000000000000
%f  0.0000000  0.000000000  0.00000000000  0.000000000000000
%i    0    0    0    0      0      0      0      0         0
%i    0    0    0    0      0      0      0      0         0
/* INFORMATION & ANALYSIS CENTER (IAC)      ULTRA-RAPID DATA
/* S/V CLOCKS ARE ALIGNED TO GNSS TIME                      
/* G:C1WC2W R:C1PC2P E:C1XC5X C:C2IC6I J:C1CC2S             
/* PCV:IGS14_2218 OL/AL:FES2004  NONE     YN ORB:CoN CLK:CoN
*  2022 09 27 13  0  0.00000000
PC06 -18277.553089  28700.748947  24764.744489    912.385393
PC07  -7816.525228  39876.908016  11606.915759   -198.575325
PC08  -2458.311891  22323.009773 -35663.981178    481.692294
PC09  -8503.185775  27649.617381  30875.730792   -851.251747
PC10  -2277.895790  42062.256971   5474.816119     91.408065
PC11  13351.547248   9304.967093 -22595.495135   -384.494916
PC12  -5056.882974  18685.802731 -20071.245303   -503.305084
PC13   5491.462667  26386.679772 -32216.482775     91.797849
PC14  11994.722917  19574.792309  15911.208707    681.023572
PC16 -22124.179244  28207.629281  22164.567019    134.525581
PC19 -15093.002022  -9916.149656 -21255.074244   -748.245872
PC20  -7849.350852 -24992.045906  -9580.096597    809.560764
PC21  -4697.622711  26094.506753  -8728.342440   -483.689729
PC22 -13984.148409  11596.149935 -21198.881497   -807.909289
PC23  21717.844418  -2775.430328 -17288.819687   -283.612316
PC24  13348.064735  19209.075842  15193.455176   -342.425292
PC25  25721.051184  10497.466361  -2515.774452      1.504664
PC26  -4175.824258  15932.412829  22514.764996    -13.444350
PC27  13368.338863 -19957.524061  14190.271763     27.284910
PC28  24297.066440 -13567.222476  -2008.136963     17.790909
PC29 -21217.933492   -769.593557  18106.396210     19.176851
PC30  -5292.913157 -15430.229275  22637.074007      0.170543
PC32   4573.486623 -26071.479598   8832.949176   -784.384732
PC33  15161.898561   9969.040838  21199.478927   -768.351710
PC34   6478.148772  14798.103394 -22764.238935      4.130583
PC35 -24156.575333  13528.714972   3368.284496     15.947050
PC36 -25372.071644 -11466.685450   1976.396877   -410.979409
PC37   5842.471131 -15242.168473 -22615.981110   -327.444242
PC38 -11409.371060  20138.323884 -35227.768643     27.155688
PC39 -25330.571830  28808.500101  17296.654598     -0.513726
PC40 -12734.656358  37215.009412  15467.533911     -4.938861
PC41  14164.871377 -11031.870199  21406.226151   -118.204956
PC42   7263.754624  25572.965261   8549.346490   -370.731338
PC43  20853.108873   1559.424479 -18493.946263     16.525569
PC44 -12729.651467  20495.888054 -14011.910282     63.480558
PC45 -21478.543536   2972.183485  17587.090857     -2.861621
PC46 -15011.520502 -18962.968725 -13951.194933     -2.598766
PE01  17899.395006  23208.945981  -4108.791879   -536.096812
PE02 -17998.534817 -23114.607886   4304.393422    327.263602
PE03 -10409.949582 -15269.644163 -23128.296211   -604.061969
PE04  19682.664706  -4912.346783  21555.118914  -1124.456593
PE05   5209.519562 -26933.711338 -11120.550052   -139.989309
PE07 -17543.275410  22750.234391  -7151.896713   -708.711321
PE08 -19576.554325   5109.839826 -21615.072362   -605.795909
PE09  17490.580367 -22725.964140   7302.344729   -673.283620
PE10  27816.249858  -6429.253457   7777.285378   -479.731937
PE11  21235.606649 -11908.778977  16824.979084   2042.689390
PE12  29548.742049   -218.722096  -1787.945365   -191.821496
PE13 -21878.657330  11549.592985 -16254.601641    430.624811
PE14   8344.098950 -21270.792853   6946.024033     11.555608
PE15 -29534.757908    149.742546   2017.022504    717.717551
PE18  -4108.922632  27764.891689 -16128.253179   -927.567497
PE19   8369.149164  17517.223312  22343.528133  -4418.394562
PE21   5907.267292  25935.293718  12990.318118   -760.154836
PE24  11204.245163 -13173.347491 -24030.437912   -859.948296
PE25  -5686.880150 -25867.770571 -13210.373889   -588.744250
PE26   -457.530256  16213.809671 -24759.557879  -1661.497719
PE27 -10390.789917  14087.880098  23877.982148   -401.946888
PE30 -20599.438588  -6843.984876  20130.201182   -870.514123
PE31  20401.328713   5929.694653 -20593.876445   -504.479701
PE33  19716.389211  11267.624674 -18982.986320   -454.140924
PE34 -19916.270299 -11143.746565  18852.962469     -6.612763
PE36   1459.320735 -16066.934711  24817.120945   -437.591551
PG01  13601.096747  13331.463129 -18966.369129    276.845900
PG02  -7096.319226 -14673.751566  21594.075811   -644.560383
PG03  11781.087263  23860.451556   -725.068137   -357.310946
PG04   4857.278029  17118.972922  19690.515055   -112.449627
PG05  -4422.940311 -23494.318473  11258.527415    -98.238194
PG06  22134.919192  -7313.633894  12855.427227    474.188841
PG07  24977.269184   6656.865483   7552.598691    304.045219
PG08  -2653.497129  22523.797939 -13561.727260    -86.378067
PG09  14026.006304   6328.408671  21573.902161   -290.755027
PG10 -16124.000107   -112.518853 -21014.788955     -5.075644
PG11  12541.201806 -12532.410711  19765.630114    -20.006977
PG12  -9676.211784 -24774.657044  -1310.935330   -284.957177
PG13  11739.861773 -22345.841344  -8121.846268    395.437859
PG14  17032.695880   2165.918786 -20283.044256   -100.306374
PG15   -599.569617 -22833.460823 -13742.043846    -25.587775
PG16  -3344.377618  20643.633981  15819.384721   -525.166035
PG17  19262.253437  -7946.326992 -16066.667517    663.264743
PG18 -25344.326877  -5683.450259   5888.851189     34.359807
PG19  19772.332473 -15526.582839  -8399.145878    216.257699
PG20   6078.258549 -16273.653511  20158.529975    483.006821
PG21   4924.077978  14577.414853 -21113.265931    158.879085
PG22 -18400.808334  18209.169983  -5088.119820    335.371535
PG23 -18421.886475 -10623.616469 -16003.762967     -0.508465
PG24  -9887.063294 -14626.531398 -20273.283558    120.806939
PG25 -16915.713518 -18467.755201   8955.326339    376.467120
PG26  -9792.799673  13296.289133  20658.214851    230.256216
PG27 -12130.204255  23180.825273  -3303.139132    206.461875
PG28  12819.252977  -7772.657805 -21434.161982    335.078718
PG29 -12390.947917  -8107.529889  22006.486597   -555.052334
PG30  26383.071050  -1219.739262  -3811.048850   -537.164798
PG31 -21898.143135   7781.423356  13125.203174   -194.827301
PG32 -19043.913279  11165.041674 -14476.837084   -245.867926
PJ02 -25597.920361  22771.398365  29600.794832     -5.926335
PJ03 -35397.117423  20415.287714  -5851.694893     -2.111821
PR01   2398.368546  23218.386956  10291.959098     15.384380
PR02   9563.509333   7592.812946  22420.900341    -22.794111
PR03  11092.210080 -11510.387525  19936.487949     64.468440
PR04   6437.773739 -23821.804151   6514.272391    159.103864
PR05  -1621.312636 -23196.913596 -10514.242609    100.310914
PR07 -10980.747548  12177.849967 -19488.047227     41.653122
PR08  -6261.498568  23891.397929  -6261.201051    -67.392708
PR09 -21539.986190 -12317.982535   5762.219898     78.969916
PR11  -2517.257072  11512.184027  22638.494310     26.213579
PR12  13924.237519  17773.527008  11884.627922     21.621204
PR13  21320.649186  13338.190544  -4274.411276    -27.232567
PR14  16232.651700    321.166245 -19663.156681     24.222800
PR15   1782.198214 -12144.112102 -22335.594712     93.505684
PR17  23690.239048  -9378.166690   -374.175950    564.392391
PR18  15282.032891 -13446.770031  15413.607302     44.413312
PR19    400.389846 -10994.806277  23011.505084   -205.212248
PR20 -18803.769505  -1305.276546  17177.885149    -79.150783
PR21 -23488.016098   9922.294447  -1242.627944   -337.048132
PR24  19398.643064    679.548134 -16518.517191    117.004800
PR25 -15098.313984  13133.443541 -15788.658765 999999.999999
EOF
